ORBCOMM FM103           
1 40091U 14040F   25150.57664316  .00000621  00000+0  16996-3 0  9996
2 40091  47.0050 100.9687 0001929 225.7267 134.3461 14.58145879561539
ORBCOMM FM114           
1 41179U 15081A   25150.87280359  .00000531  00000+0  15061-3 0  9996
2 41179  47.0044   8.6285 0002559 269.2172  90.8420 14.58187898501943
ORBCOMM FM119           
1 41180U 15081B   25150.65445502  .00000607  00000+0  16712-3 0  9995
2 41180  47.0007 278.9664 0001463 298.0049  62.0688 14.58121963503167
ORBCOMM FM105           
1 41181U 15081C   25150.66165687  .00000239  00000+0  11210-3 0  9999
2 41181  47.0018 282.1772 0002408 243.4479 116.6155 14.45209290498218
ORBCOMM FM110           
1 41182U 15081D   25150.78561566  .00000853  00000+0  22056-3 0  9991
2 41182  47.0036   8.4659 0001178  97.3506 262.7513 14.57996506501809
ORBCOMM FM118           
1 41183U 15081E   25150.90037927  .00000868  00000+0  22197-3 0  9997
2 41183  47.0057   8.3134 0003592  68.7084 291.4185 14.58399016501926
ORBCOMM FM112           
1 41184U 15081F   25150.76771916  .00000758  00000+0  19941-3 0  9996
2 41184  46.9993 277.5836 0001913 263.6991  96.3676 14.58145422503122
ORBCOMM FM113           
1 41185U 15081G   25150.60746147  .00000779  00000+0  20385-3 0  9995
2 41185  47.0011 278.6624 0001733 274.7976  85.2711 14.58152902503082
